ONEWEB-0668             
1 56711U 23068B   25308.41353824  .00000155  00000+0  36275-3 0  9993
2 56711  87.9007 273.5257 0002077  69.4245 290.7110 13.18150049122209
ONEWEB-0676             
1 56712U 23068C   25308.40982333 -.00000378  00000+0 -10218-2 0  9993
2 56712  87.8995 273.5474 0001779  86.9090 273.2244 13.16595042122125
ONEWEB-0677             
1 56713U 23068D   25308.41633574 -.00000127  00000+0 -34518-3 0  9997
2 56713  87.9189 319.2601 0001708  90.8164 269.3165 13.20772460120133
ONEWEB-0678             
1 56714U 23068E   25308.48664513 -.00000104  00000+0 -30938-3 0  9999
2 56714  87.8959 304.0230 0002044  98.9246 261.2116 13.15550316119742
ONEWEB-0679             
1 56715U 23068F   25308.44480499  .00000078  00000+0  16966-3 0  9998
2 56715  87.8992 273.5263 0001538  69.7868 290.3428 13.16595048122159
ONEWEB-0680             
1 56716U 23068G   25308.42972307  .00000095  00000+0  19951-3 0  9997
2 56716  87.9172 288.7974 0001894  67.4087 292.7247 13.21825279121401
ONEWEB-0681             
1 56717U 23068H   25308.48487288  .00000050  00000+0  88539-4 0  9993
2 56717  87.9170 288.8038 0000981 110.4537 249.6702 13.21827213121404
ONEWEB-0682             
1 56718U 23068J   25308.43674480  .00000236  00000+0  59357-3 0  9992
2 56718  87.8955 304.0500 0001811  75.2866 284.8465 13.15548668119902
